1 25994U 99068A   08171.19219208  .00000060  00000-0  23282-4 0  6905
2 25994  98.2112 245.3267 0001714  88.2882 271.8525 14.57111483452299
1 25994U 99068A   08171.32953093  .00000078  00000-0  27298-4 0  6918
2 25994  98.2112 245.4621 0001705  88.3055 271.8341 14.57111567452319
1 25994U 99068A   08171.67287841  .00000031  00000-0  16943-4 0  6922
2 25994  98.2111 245.8006 0001686  88.0553 272.0836 14.57111550452366
1 25994U 99068A   08171.87888709 -.00000020  00000-0  56786-5 0  6934
2 25994  98.2113 246.0038 0001711  87.7342 272.4026 14.57111150452391
1 25994U 99068A   08172.70292176  .00000003  00000-0  10725-4 0  6947
2 25994  98.2109 246.8161 0001712  87.5393 272.6003 14.57111522452510
1 25994U 99068A   08173.04626960  .00000048  00000-0  20662-4 0  6958
2 25994  98.2111 247.1546 0001731  87.1458 272.9943 14.57111655452561
1 25994U 99068A   08173.52695556  .00000137  00000-0  40485-4 0  6963
2 25994  98.2111 247.6286 0001706  87.3818 272.7581 14.57112379452639
1 25994U 99068A   08173.80163334  .00000099  00000-0  31982-4 0  6978
2 25994  98.2110 247.8994 0001706  86.8779 273.2602 14.57112275452675
1 25994U 99068A   08173.93897260  .00000076  00000-0  26925-4 0  6981
2 25994  98.2111 248.0348 0001722  87.4994 272.6391 14.57112127452692
1 25994U 99068A   08174.07631183  .00000109  00000-0  34194-4 0  6981
2 25994  98.2111 248.1702 0001714  87.6279 272.5123 14.57112323452719
1 25994U 99068A   08174.48832863  .00000110  00000-0  34429-4 0  6998
2 25994  98.2111 248.5765 0001706  87.6915 272.4484 14.57112501452773
1 25994U 99068A   08174.76300643  .00000039  00000-0  18781-4 0  7001
2 25994  98.2111 248.8473 0001700  85.9917 274.1445 14.57112093452816
1 25994U 99068A   08174.90034606  .00000030  00000-0  16616-4 0  7017
2 25994  98.2111 248.9826 0001706  86.0258 274.1127 14.57111985452833
1 25994U 99068A   08175.17502413  .00000077  00000-0  27117-4 0  7012
2 25994  98.2110 249.2537 0001683  85.0250 275.1158 14.57112438452873
1 25994U 99068A   08175.44970180  .00000071  00000-0  25908-4 0  7023
2 25994  98.2110 249.5245 0001683  84.3654 275.7738 14.57112491452916
1 25994U 99068A   08175.79304914  .00000043  00000-0  19668-4 0  7033
2 25994  98.2110 249.8629 0001686  83.7235 276.4149 14.57112474452966
1 25994U 99068A   08175.93038826  .00000031  00000-0  16834-4 0  7045
2 25994  98.2110 249.9983 0001674  83.9134 276.2252 14.57112385452983
1 25994U 99068A   08176.20506621  .00000062  00000-0  23726-4 0  7041
2 25994  98.2112 250.2692 0001675  84.0079 276.1316 14.57112637453024
1 25994U 99068A   08176.41107457  .00000032  00000-0  17143-4 0  7052
2 25994  98.2108 250.4723 0001659  84.3172 275.8212 14.57112523453053
1 25994U 99068A   08176.82309159 -.00000025  00000-0  43995-5 0  7070
2 25994  98.2110 250.8787 0001650  83.6333 276.5040 14.57112242453114
1 25994U 99068A   08177.16643942 -.00000024  00000-0  47007-5 0  7065
2 25994  98.2106 251.2171 0001661  81.8986 278.2401 14.57112278453161
1 25994U 99068A   08177.50978651  .00000039  00000-0  18808-4 0  7073
2 25994  98.2105 251.5559 0001628  81.7220 278.4162 14.57112663453216
1 25994U 99068A   08177.85313379  .00000070  00000-0  25691-4 0  7085
2 25994  98.2108 251.8945 0001656  80.7389 279.3990 14.57112855453264
1 25994U 99068A   08178.12781197  .00000095  00000-0  31161-4 0  7090
2 25994  98.2105 252.1652 0001645  80.9673 279.1721 14.57113006453300
1 25994U 99068A   08178.67716748 -.00000011  00000-0  75937-5 0  7101
2 25994  98.2103 252.7069 0001614  80.7885 279.3494 14.57112772453381
1 25994U 99068A   08178.81450649 -.00000003  00000-0  93847-5 0  7114
2 25994  98.2102 252.8422 0001618  79.5400 280.5973 14.57112751453403
1 25994U 99068A   08179.08918467  .00000009  00000-0  12025-4 0  7114
2 25994  98.2103 253.1129 0001606  80.0958 280.0427 14.57112782453441
1 25994U 99068A   08179.29519302  .00000030  00000-0  16718-4 0  7120
2 25994  98.2101 253.3161 0001590  80.0686 280.0707 14.57113008453473
1 25994U 99068A   08179.84454835  .00000071  00000-0  25865-4 0  7139
2 25994  98.2102 253.8576 0001626  79.5407 280.5966 14.57113208453556
1 25994U 99068A   08180.18789586  .00000085  00000-0  29004-4 0  7147
2 25994  98.2098 254.1962 0001613  80.2152 279.9241 14.57113409453602
1 25994U 99068A   08180.46257344  .00000077  00000-0  27088-4 0  7152
2 25994  98.2101 254.4669 0001628  79.9621 280.1756 14.57113401453647
