OBJECT_NAME,OBJECT_ID,EPOCH,MEAN_MOTION,ECCENTRICITY,INCLINATION,RA_OF_ASC_NODE,ARG_OF_PERICENTER,MEAN_ANOMALY,EPHEMERIS_TYPE,CLASSIFICATION_TYPE,NORAD_CAT_ID,ELEMENT_SET_NO,REV_AT_EPOCH,BSTAR,MEAN_MOTION_DOT,MEAN_MOTION_DDOT
TERRA,1999-068A,2008-06-19T04:36:45.395712,14.57111483,.0001714,98.2112,245.3267,88.2882,271.8525,0,U,25994,690,45229,.23282E-4,.6E-6,0
TERRA,1999-068A,2008-06-19T07:54:31.472352,14.57111567,.0001705,98.2112,245.4621,88.3055,271.8341,0,U,25994,691,45231,.27298E-4,.78E-6,0
TERRA,1999-068A,2008-06-19T16:08:56.694624,14.57111550,.0001686,98.2111,245.8006,88.0553,272.0836,0,U,25994,692,45236,.16943E-4,.31E-6,0
TERRA,1999-068A,2008-06-19T21:05:35.844576,14.57111150,.0001711,98.2113,246.0038,87.7342,272.4026,0,U,25994,693,45239,.56786E-5,-.2E-6,0
TERRA,1999-068A,2008-06-20T16:52:12.440064,14.57111522,.0001712,98.2109,246.8161,87.5393,272.6003,0,U,25994,694,45251,.10725E-4,.3E-7,0
TERRA,1999-068A,2008-06-21T01:06:37.693440,14.57111655,.0001731,98.2111,247.1546,87.1458,272.9943,0,U,25994,695,45256,.20662E-4,.48E-6,0
TERRA,1999-068A,2008-06-21T12:38:48.960384,14.57112379,.0001706,98.2111,247.6286,87.3818,272.7581,0,U,25994,696,45263,.40485E-4,.137E-5,0
TERRA,1999-068A,2008-06-21T19:14:21.120576,14.57112275,.0001706,98.2110,247.8994,86.8779,273.2602,0,U,25994,697,45267,.31982E-4,.99E-6,0
TERRA,1999-068A,2008-06-21T22:32:07.232640,14.57112127,.0001722,98.2111,248.0348,87.4994,272.6391,0,U,25994,698,45269,.26925E-4,.76E-6,0
TERRA,1999-068A,2008-06-22T01:49:53.342112,14.57112323,.0001714,98.2111,248.1702,87.6279,272.5123,0,U,25994,698,45271,.34194E-4,.109E-5,0
TERRA,1999-068A,2008-06-22T11:43:11.593632,14.57112501,.0001706,98.2111,248.5765,87.6915,272.4484,0,U,25994,699,45277,.34429E-4,.11E-5,0
TERRA,1999-068A,2008-06-22T18:18:43.755552,14.57112093,.00017,98.2111,248.8473,85.9917,274.1445,0,U,25994,700,45281,.18781E-4,.39E-6,0
TERRA,1999-068A,2008-06-22T21:36:29.899584,14.57111985,.0001706,98.2111,248.9826,86.0258,274.1127,0,U,25994,701,45283,.16616E-4,.3E-6,0
TERRA,1999-068A,2008-06-23T04:12:02.084832,14.57112438,.0001683,98.2110,249.2537,85.0250,275.1158,0,U,25994,701,45287,.27117E-4,.77E-6,0
TERRA,1999-068A,2008-06-23T10:47:34.235520,14.57112491,.0001683,98.2110,249.5245,84.3654,275.7738,0,U,25994,702,45291,.25908E-4,.71E-6,0
TERRA,1999-068A,2008-06-23T19:01:59.445696,14.57112474,.0001686,98.2110,249.8629,83.7235,276.4149,0,U,25994,703,45296,.19668E-4,.43E-6,0
TERRA,1999-068A,2008-06-23T22:19:45.545664,14.57112385,.0001674,98.2110,249.9983,83.9134,276.2252,0,U,25994,704,45298,.16834E-4,.31E-6,0
TERRA,1999-068A,2008-06-24T04:55:17.720544,14.57112637,.0001675,98.2112,250.2692,84.0079,276.1316,0,U,25994,704,45302,.23726E-4,.62E-6,0
TERRA,1999-068A,2008-06-24T09:51:56.842848,14.57112523,.0001659,98.2108,250.4723,84.3172,275.8212,0,U,25994,705,45305,.17143E-4,.32E-6,0
TERRA,1999-068A,2008-06-24T19:45:15.113376,14.57112242,.000165,98.2110,250.8787,83.6333,276.5040,0,U,25994,707,45311,.43995E-5,-.25E-6,0
TERRA,1999-068A,2008-06-25T03:59:40.365888,14.57112278,.0001661,98.2106,251.2171,81.8986,278.2401,0,U,25994,706,45316,.47007E-5,-.24E-6,0
TERRA,1999-068A,2008-06-25T12:14:05.554464,14.57112663,.0001628,98.2105,251.5559,81.7220,278.4162,0,U,25994,707,45321,.18808E-4,.39E-6,0
TERRA,1999-068A,2008-06-25T20:28:30.759456,14.57112855,.0001656,98.2108,251.8945,80.7389,279.3990,0,U,25994,708,45326,.25691E-4,.7E-6,0
TERRA,1999-068A,2008-06-26T03:04:02.954208,14.57113006,.0001645,98.2105,252.1652,80.9673,279.1721,0,U,25994,709,45330,.31161E-4,.95E-6,0
TERRA,1999-068A,2008-06-26T16:15:07.270272,14.57112772,.0001614,98.2103,252.7069,80.7885,279.3494,0,U,25994,710,45338,.75937E-5,-.11E-6,0
TERRA,1999-068A,2008-06-26T19:32:53.360736,14.57112751,.0001618,98.2102,252.8422,79.5400,280.5973,0,U,25994,711,45340,.93847E-5,-.3E-7,0
TERRA,1999-068A,2008-06-27T02:08:25.555488,14.57112782,.0001606,98.2103,253.1129,80.0958,280.0427,0,U,25994,711,45344,.12025E-4,.9E-7,0
TERRA,1999-068A,2008-06-27T07:05:04.676928,14.57113008,.000159,98.2101,253.3161,80.0686,280.0707,0,U,25994,712,45347,.16718E-4,.3E-6,0
TERRA,1999-068A,2008-06-27T20:16:08.977440,14.57113208,.0001626,98.2102,253.8576,79.5407,280.5966,0,U,25994,713,45355,.25865E-4,.71E-6,0
TERRA,1999-068A,2008-06-28T04:30:34.202304,14.57113409,.0001613,98.2098,254.1962,80.2152,279.9241,0,U,25994,714,45360,.29004E-4,.85E-6,0
TERRA,1999-068A,2008-06-28T11:06:06.345216,14.57113401,.0001628,98.2101,254.4669,79.9621,280.1756,0,U,25994,715,45364,.27088E-4,.77E-6,0
